IRIDIUM 155             
1 43573U 18061E   22365.74276244  .00000276  00000+0  91642-4 0  9992
2 43573  86.3976 224.6507 0002014  95.8913 264.2512 14.34220443232265
IRIDIUM 154             
1 43574U 18061F   23001.35165178  .00000276  00000+0  91400-4 0  9993
2 43574  86.3980 224.4688 0001791  80.5882 279.5516 14.34220635232408
IRIDIUM 163             
1 43575U 18061G   22365.70470794  .00000276  00000+0  91602-4 0  9992
2 43575  86.3979 224.6934 0002289  81.0997 279.0457 14.34220962232287
IRIDIUM 156             
1 43576U 18061H   23001.37701619  .00000280  00000+0  92901-4 0  9995
2 43576  86.3976 224.4182 0002315  88.1784 271.9677 14.34222623232360
IRIDIUM 164             
1 43577U 18061J   22365.66030077  .00000262  00000+0  86478-4 0  9995
2 43577  86.3980 224.7388 0001961  79.3687 280.7730 14.34213742232312
IRIDIUM 159             
1 43578U 18061K   23001.32628311  .00000283  00000+0  94025-4 0  9991
2 43578  86.3977 224.4239 0001892  82.5929 277.5482 14.34220345232370
IRIDIUM 180             
1 43922U 19002A   22365.41877763  .00000325  00000+0  10907-3 0  9992
2 43922  86.3990 161.7727 0001892  78.8814 281.2595 14.34221800207853
IRIDIUM 176             
1 43923U 19002B   23001.45488530  .00001141  00000+0  17714-3 0  9995
2 43923  86.6139 161.3821 0002179  86.0042 274.1425 14.72241820213469
IRIDIUM 168             
1 43924U 19002C   22365.69151141  .00000327  00000+0  10973-3 0  9994
2 43924  86.3993 161.7003 0001826  87.3509 272.7896 14.34218239207871
IRIDIUM 173             
1 43925U 19002D   22365.95789655  .00000257  00000+0  84817-4 0  9992
2 43925  86.3992 161.5297 0001868  85.8100 274.3309 14.34215647207901
IRIDIUM 169             
1 43926U 19002E   23001.46719709  .00000127  00000+0  34896-4 0  9998
2 43926  86.4245 192.8698 0004539 155.9408 204.2003 14.38612359208688
IRIDIUM 172             
1 43927U 19002F   22365.67247082  .00000331  00000+0  11121-3 0  9996
2 43927  86.3990 161.6531 0001861  82.3869 277.7538 14.34218096207867
IRIDIUM 175             
1 43928U 19002G   23001.44872178  .00000457  00000+0  68642-4 0  9990
2 43928  86.6128 161.2194 0002150  93.0833 267.0631 14.72243341213458
IRIDIUM 171             
1 43929U 19002H   23001.14183719  .00000236  00000+0  77111-4 0  9990
2 43929  86.4002 161.6229 0001797  87.9606 272.1795 14.34215742207922
IRIDIUM 170             
1 43930U 19002J   23001.39313079  .00001139  00000+0  17669-3 0  9997
2 43930  86.6126 161.4118 0002168  89.5814 270.5652 14.72262017213469
IRIDIUM 167             
1 43931U 19002K   22365.71687680  .00000328  00000+0  11012-3 0  9993
2 43931  86.3992 161.6457 0001843  81.3266 278.8138 14.34219247207868
